MEAN_MOTION;ECCENTRICITY;INCLINATION;RA_OF_ASC_NODE;ARG_OF_PERICENTER;MEAN_ANOMALY;BSTAR;MEAN_MOTION_DOT;MEAN_MOTION_DDOT;TYPE
14.66760322;0.001307;98.0225;212.5698;15.2104;344.9497;1.2581E-5;2.2E-7;0;Amateur
14.66760391;0.0013004;98.0224;212.9035;14.3201;345.8372;2.0567E-5;6.7E-7;0;Amateur
14.66760756;0.0012944;98.0222;213.2369;13.19;346.9657;2.6244E-5;9.9E-7;0;Amateur
14.66760731;0.0013043;98.0223;213.5706;11.8906;348.2596;2.1263E-5;7.1E-7;0;Amateur
14.66760399;0.0013006;98.0223;213.9043;10.8445;349.3027;1.5744E-5;4.0E-7;0;Amateur
14.66760662;0.0013005;98.0222;214.2382;9.6584;350.4872;1.8454E-5;5.5E-7;0;Amateur
14.66760777;0.001299;98.0223;214.5051;8.8476;351.2954;1.8654E-5;5.6E-7;0;Amateur
14.66760579;0.0012958;98.0223;214.9055;7.4629;352.6776;1.523E-5;3.7E-7;0;Amateur
14.6676094;0.0012919;98.0221;215.1726;6.5069;353.6301;2.0009E-5;6.4E-7;0;Amateur
14.66761219;0.0012938;98.0222;215.5063;5.3677;354.7676;2.2135E-5;7.6E-7;0;Amateur
14.66761226;0.0012909;98.0223;215.84;4.3429;355.788;2.6118E-5;9.8E-7;0;Amateur
14.66761698;0.0012837;98.0222;216.1735;3.2292;356.9008;3.5663E-5;1.51E-6;0;Amateur
14.66761778;0.0012819;98.0224;216.5079;2.1142;358.0112;3.1941E-5;1.3E-6;0;Amateur
14.66761538;0.0012806;98.0225;216.6415;1.6453;358.4775;2.6663E-5;1.01E-6;0;Amateur
14.66761417;0.0012806;98.0225;217.0575;0.2991;84.1787;1.8034E-5;5.3E-7;0;Amateur
14.6676164;0.0012708;98.0229;217.1753;359.7877;0.3323;2.7384E-5;1.05E-6;0;Amateur
14.66761588;0.0012639;98.0232;217.5091;358.7561;1.3613;1.9658E-5;6.2E-7;0;Amateur
14.66761453;0.0012594;98.0235;217.843;357.7542;2.3607;1.674E-5;4.6E-7;0;Amateur
14.66761574;0.0012559;98.0235;217.9766;357.2129;2.9015;1.8203E-5;5.4E-7;0;Amateur
14.66761466;0.0012557;98.0234;218.3105;356.2769;3.8343;8.296E-6;-2.0E-8;0;Amateur
14.66761553;0.0012483;98.0236;218.5113;355.7867;4.3242;8.6265E-6;0;0;Amateur
14.66761559;0.0012466;98.0239;218.8452;354.7344;5.3729;1.4425E-5;3.3E-7;0;Amateur
14.66761853;0.0012416;98.024;219.1788;353.5336;6.5717;1.7795E-5;5.1E-7;0;Amateur
14.66761938;0.0012348;98.0242;219.4465;352.771;7.3315;1.732E-5;4.9E-7;0;Amateur
14.6676188;0.0012238;98.0244;219.7807;351.883;8.2184;2.2961E-5;8.0E-7;0;Amateur
14.66762032;0.0012133;98.0248;220.4481;349.6333;10.4624;1.7153E-5;4.8E-7;0;Amateur
14.66761997;0.0012208;98.0249;220.7821;348.4596;11.6335;1.8894E-5;5.8E-7;0;Amateur
14.66762268;0.0012204;98.025;221.1157;347.2866;12.803;2.0376E-5;6.6E-7;0;Amateur
14.66762286;0.0012171;98.0251;221.4495;346.2282;13.8594;1.5403E-5;3.8E-7;0;Amateur
14.66762257;0.001223;98.0252;221.7832;345.0544;15.0309;1.918E-5;5.9E-7;0;Amateur
14.66762483;0.0012241;98.0251;222.0506;344.1204;15.9625;2.184E-5;7.4E-7;0;Amateur
14.66762568;0.0012264;98.025;222.3844;342.9584;17.1201;1.9749E-5;6.2E-7;0;Amateur
14.66762357;0.0012293;98.0252;222.7183;341.7983;18.2787;1.8737E-5;5.7E-7;0;Amateur
14.66762726;0.0012201;98.0253;223.0522;340.2208;19.8528;2.5048E-5;9.2E-7;0;Amateur
14.66762592;0.0012191;98.0253;223.3858;339.0479;21.0224;1.4751E-5;3.4E-7;0;Amateur
14.66762635;0.0012171;98.0254;223.7196;337.9085;22.16;1.9016E-5;5.8E-7;0;Amateur
14.66763083;0.0012186;98.0254;224.0529;336.7545;23.3106;2.6455E-5;1.0E-6;0;Amateur
14.66763168;0.0012197;98.0254;224.3865;335.5885;24.4745;2.2603E-5;7.8E-7;0;Amateur
14.66763227;0.0012179;98.0255;224.7202;334.4976;25.5633;2.8555E-5;1.11E-6;0;Amateur
14.66763353;0.0012187;98.0255;224.854;334.0061;26.0537;2.968E-5;1.18E-6;0;Amateur
14.66763564;0.0012153;98.0255;225.054;333.3013;26.7573;3.4153E-5;1.43E-6;0;Amateur
14.66763732;0.0012139;98.0256;225.1879;332.8477;27.2098;3.7665E-5;1.62E-6;0;Amateur
14.66763581;0.0012108;98.0257;225.3215;332.342;27.7138;2.888E-5;1.13E-6;0;Amateur
14.66763432;0.0011982;98.0257;225.6554;331.1602;28.8948;2.95E-5;1.17E-6;0;Amateur
14.66763595;0.0011951;98.0257;225.9896;329.9172;30.1344;2.7024E-5;1.03E-6;0;Amateur
14.66763447;0.0011927;98.0257;226.3232;328.8162;31.2335;1.5791E-5;4.0E-7;0;Amateur
14.66763601;0.0011862;98.0259;226.9911;326.5617;33.484;1.7591E-5;5.0E-7;0;Amateur
14.66763796;0.0011802;98.0258;227.3252;325.3792;34.6653;1.6945E-5;4.7E-7;0;Amateur
14.66763797;0.0011811;98.0259;227.659;324.4011;35.641;2.1696E-5;7.3E-7;0;Amateur
14.66764167;0.0011834;98.0259;227.9258;323.4999;36.5413;2.9138E-5;1.15E-6;0;Amateur
14.66764371;0.0011868;98.0259;228.2598;322.4848;37.5518;3.0235E-5;1.21E-6;0;Amateur
14.66764403;0.0011853;98.0259;228.5937;321.6177;38.4184;3.72E-5;1.6E-6;0;Amateur
14.66764524;0.0011795;98.0259;228.928;320.1973;39.8372;3.264E-5;1.34E-6;0;Amateur
14.66764521;0.0011804;98.026;229.2618;319.0594;40.9724;2.5186E-5;9.3E-7;0;Amateur
14.66764468;0.0011855;98.0263;229.5955;317.9979;42.0318;2.6041E-5;9.7E-7;0;Amateur
14.66765032;0.0011845;98.026;229.9292;316.593;43.4349;3.6679E-5;1.57E-6;0;Amateur
14.66765257;0.0011845;98.0259;230.2629;315.436;44.5897;3.5929E-5;1.53E-6;0;Amateur
14.66765273;0.0011809;98.0261;230.5968;314.2326;45.7912;3.8951E-5;1.69E-6;0;Amateur
14.66765406;0.0011803;98.0261;230.8636;313.3017;46.721;3.7154E-5;1.59E-6;0;Amateur
14.66765483;0.00118;98.0263;231.1977;312.178;47.842;3.3601E-5;1.4E-6;0;Amateur
14.6676542;0.0011784;98.0264;231.5319;311.1487;48.8688;3.4646E-5;1.45E-6;0;Amateur
14.66765645;0.0011745;98.0264;231.732;310.1837;49.8358;3.6615E-5;1.56E-6;0;Amateur
14.66765568;0.001171;98.0266;231.9987;309.0512;50.9644;2.9883E-5;1.19E-6;0;Amateur
14.66765365;0.0011688;98.0266;232.1989;308.2152;51.7998;1.7961E-5;5.2E-7;0;Amateur
14.66765344;0.0011709;98.0268;232.5328;307.2095;52.8043;2.0129E-5;6.4E-7;0;Amateur
14.66765615;0.0011666;98.0267;232.8667;305.9438;54.0689;2.208E-5;7.5E-7;0;Amateur
14.66765775;0.0011605;98.0268;233.2005;304.7298;55.2825;1.9956E-5;6.3E-7;0;Amateur
14.66765795;0.0011543;98.0272;233.5346;303.1542;56.8572;2.3797E-5;8.5E-7;0;Amateur
14.6676617;0.0011531;98.0272;233.8017;302.068;57.941;3.1891E-5;1.3E-6;0;Amateur
14.66766155;0.0011492;98.0272;234.1355;300.8602;59.1468;2.5966E-5;9.7E-7;0;Amateur
14.6676598;0.00115;98.0274;234.47;299.906;60.1001;2.674E-5;1.01E-6;0;Amateur
14.66766211;0.0011488;98.0275;234.8039;298.5914;61.4134;2.7195E-5;1.04E-6;0;Amateur
14.66766204;0.0011435;98.0277;235.1383;297.2755;62.7294;1.9281E-5;6.0E-7;0;Amateur
14.66766318;0.0011516;98.0281;235.4726;296.4985;63.5048;2.5463E-5;9.4E-7;0;Amateur
14.66766797;0.0011543;98.0279;235.8068;295.2322;64.77;3.3508E-5;1.39E-6;0;Amateur
14.6676715;0.0011548;98.0278;236.1406;294.1763;65.8237;3.8607E-5;1.67E-6;0;Amateur
14.66767055;0.0011511;98.0279;236.4745;292.639;67.361;3.6081E-5;1.53E-6;0;Amateur
14.66767448;0.0011533;98.0279;236.7416;291.7348;68.2635;4.3352E-5;1.94E-6;0;Amateur
14.66767547;0.0011521;98.028;237.0757;290.5161;69.4802;4.0279E-5;1.77E-6;0;Amateur
14.66767515;0.0011486;98.0282;237.41;289.2283;70.7684;4.3029E-5;1.92E-6;0;Amateur
14.66767839;0.0011471;98.0283;237.7438;287.6197;72.3749;4.5817E-5;2.08E-6;0;Amateur
14.66767733;0.0011463;98.0284;238.0777;286.325;73.6694;3.2858E-5;1.35E-6;0;Amateur
14.66767745;0.0011434;98.0285;238.4117;285.094;74.9002;3.3426E-5;1.39E-6;0;Amateur
14.66767876;0.0011445;98.0286;238.5455;284.754;75.2403;3.257E-5;1.34E-6;0;Amateur
14.66767913;0.0011435;98.0286;238.8793;283.6053;76.3881;2.6619E-5;1.01E-6;0;Amateur
14.66767941;0.0011377;98.0288;239.0803;282.6983;77.2954;2.4295E-5;8.8E-7;0;Amateur
14.6676814;0.0011357;98.0289;239.4146;281.5745;78.4186;3.3456E-5;1.39E-6;0;Amateur
14.66768469;0.0011345;98.0289;239.682;280.4073;79.586;3.8875E-5;1.69E-6;0;Amateur
14.66768553;0.0011325;98.029;240.0162;279.2161;80.7762;3.5843E-5;1.52E-6;0;Amateur
14.66768374;0.001123;98.0292;240.3506;277.7035;82.2895;3.5238E-5;1.49E-6;0;Amateur
14.66768692;0.0011253;98.0292;240.6847;276.1884;83.8041;3.7348E-5;1.6E-6;0;Amateur
14.66768732;0.0011227;98.0294;241.0188;275.0782;84.9141;3.0605E-5;1.23E-6;0;Amateur
14.66768916;0.0011276;98.0293;241.3528;274.157;85.8361;3.7211E-5;1.6E-6;0;Amateur
14.66769285;0.0011294;98.0292;241.6871;273.0772;86.9148;4.006E-5;1.76E-6;0;Amateur
14.66769426;0.0011283;98.0291;241.8875;272.3746;87.6171;3.9509E-5;1.72E-6;0;Amateur
14.66769299;0.001127;98.0292;242.021;271.8445;88.1461;3.3689E-5;1.4E-6;0;Amateur
14.66769365;0.0011282;98.0291;242.2215;271.3531;88.6369;3.9481E-5;1.72E-6;0;Amateur
14.66769604;0.0011301;98.029;242.5556;270.3744;89.6171;3.9701E-5;1.74E-6;0;Amateur
14.66769871;0.0011303;98.0289;242.8228;269.4655;90.5262;4.4349E-5;1.99E-6;0;Amateur
14.66769477;0.0011313;98.029;243.0231;268.7981;91.1907;2.9118E-5;1.15E-6;0;Amateur
14.66769635;0.0011382;98.0289;243.4905;267.098;92.8927;3.1171E-5;1.26E-6;0;Amateur
14.66769804;0.0011396;98.0288;243.9577;265.3646;94.6256;2.6658E-5;1.01E-6;0;Amateur
14.66770139;0.0011415;98.0289;244.9598;261.6804;98.3097;2.2238E-5;7.6E-7;0;Amateur
14.66770629;0.0011456;98.0289;245.7613;258.3846;101.6079;3.437E-5;1.44E-6;0;Amateur
14.66770186;0.0011456;98.0291;245.9617;257.5033;102.4873;1.723E-5;4.8E-7;0;Amateur
14.66770129;0.0011409;98.0292;246.0952;256.8207;103.1711;2.0589E-5;6.7E-7;0;Amateur
14.66770751;0.0011468;98.0293;246.4291;255.2898;104.7058;3.3294E-5;1.38E-6;0;Amateur
14.66770701;0.0011492;98.0295;246.7634;254.1934;105.8003;2.5393E-5;9.4E-7;0;Amateur
14.66770571;0.0011506;98.0294;246.8968;253.6886;106.3052;1.7657E-5;5.1E-7;0;Amateur
14.66770126;0.0011508;98.0293;247.0971;253.1779;106.8134;6.9597E-6;-9.0E-8;0;Amateur
14.66770608;0.0011527;98.0293;247.4313;252.0379;107.9589;1.5976E-5;4.1E-7;0;Amateur
14.6677087;0.001154;98.0296;247.7659;250.8742;109.122;1.9455E-5;6.1E-7;0;Amateur
14.66770296;0.0011551;98.0296;247.8992;250.3372;109.6563;5.4043E-7;-4.5E-7;0;Amateur
14.66770351;0.0011567;98.0295;248.0999;249.2636;110.7325;1.0878E-5;1.3E-7;0;Amateur
14.66770659;0.0011588;98.0298;248.3673;248.4733;111.5247;1.7299E-5;4.9E-7;0;Amateur
14.66770791;0.00116;98.0298;248.7011;247.2988;112.6992;1.8612E-5;5.6E-7;0;Amateur
14.66770771;0.0011597;98.0298;248.9016;246.5374;113.4611;1.623E-5;4.3E-7;0;Amateur
14.66770254;0.001161;98.0301;249.0352;246.3221;113.6737;2.6909E-6;-3.3E-7;0;Amateur
14.66770709;0.0011652;98.0302;249.369;245.4524;114.5476;1.1577E-5;1.7E-7;0;Amateur
